[Satellite]
VERSION=1.1
NAME=MOLNIYA 1-92
NICKNAME=MOLNIYA 1-92
TLE1=1 27707U 03011A   11059.29424777 -.00000321  00000-0  10000-3 0  8187
TLE2=2 27707  64.7555 137.2219 7123131 252.9339  64.5468  2.00598536 57961
